{
    "links": {
        "self": "http://www.neowsapp.com/rest/v1/neo/3838899?api_key=iIulBulltgU6a56xZRHN4H3l9WmuAYTsLGpBGhQ2"
    },
    "id": "3838899",
    "neo_reference_id": "3838899",
    "name": "(2019 EC1)",
    "designation": "2019 EC1",
    "nasa_jpl_url": "http://ssd.jpl.nasa.gov/sbdb.cgi?sstr=3838899",
    "absolute_magnitude_h": 23.5,
    "estimated_diameter": {
        "kilometers": {
            "estimated_diameter_min": 0.0530340723,
            "estimated_diameter_max": 0.1185877909
        },
        "meters": {
            "estimated_diameter_min": 53.0340723319,
            "estimated_diameter_max": 118.5877908577
        },
        "miles": {
            "estimated_diameter_min": 0.0329538346,
            "estimated_diameter_max": 0.0736870142
        },
        "feet": {
            "estimated_diameter_min": 173.9963058693,
            "estimated_diameter_max": 389.0675677576
        }
    },
    "is_potentially_hazardous_asteroid": false,
    "close_approach_data": [
        {
            "close_approach_date": "2019-03-11",
            "close_approach_date_full": "2019-Mar-11 21:32",
            "epoch_date_close_approach": 1552339920000,
            "relative_velocity": {
                "kilometers_per_second": "15.0905625196",
                "kilometers_per_hour": "54326.0250705301",
                "miles_per_hour": "33756.0793000747"
            },
            "miss_distance": {
                "astronomical": "0.0782404174",
                "lunar": "30.4355223686",
                "kilometers": "11704599.790950938",
                "miles": "7272901.0611934244"
            },
            "orbiting_body": "Earth"
        }
    ],
    "orbital_data": {
        "orbit_id": "8",
        "orbit_determination_date": "2019-06-18 05:24:20",
        "first_observation_date": "2019-03-04",
        "last_observation_date": "2019-03-17",
        "data_arc_in_days": 13,
        "observations_used": 46,
        "orbit_uncertainty": "8",
        "minimum_orbit_intersection": ".0643391",
        "jupiter_tisserand_invariant": "3.700",
        "epoch_osculation": "2458551.5",
        "eccentricity": ".4591352525600425",
        "semi_major_axis": "1.906589712241722",
        "inclination": "25.43239903235103",
        "ascending_node_longitude": "354.9846728407202",
        "orbital_period": "961.5775046453572",
        "perihelion_distance": "1.03120716318324",
        "perihelion_argument": "155.463174199329",
        "aphelion_distance": "2.781972261300203",
        "perihelion_time": "2458534.230933041326",
        "mean_anomaly": "6.465276147881084",
        "mean_motion": ".3743847981684772",
        "equinox": "J2000",
        "orbit_class": {
            "orbit_class_type": "AMO",
            "orbit_class_description": "Near-Earth asteroid orbits similar to that of 1221 Amor",
            "orbit_class_range": "1.017 AU < q (perihelion) < 1.3 AU"
        }
    },
    "is_sentry_object": false
}